[{"OBJECT_NAME":"STARLINK-2021","OBJECT_ID":"2021-009BJ","EPOCH":"2026-03-09T21:25:11.703648","MEAN_MOTION":15.65170997,"ECCENTRICITY":0.00069123,"INCLINATION":53.0451,"RA_OF_ASC_NODE":334.9816,"ARG_OF_PERICENTER":125.4703,"MEAN_ANOMALY":234.6958,"EPHEMERIS_TYPE":0,"CLASSIFICATION_TYPE":"U","NORAD_CAT_ID":47604,"ELEMENT_SET_NO":999,"REV_AT_EPOCH":28147,"BSTAR":0.00097097942,"MEAN_MOTION_DOT":0.00098541,"MEAN_MOTION_DDOT":0},{"OBJECT_NAME":"JILIN-1 GAOFEN 03D13","OBJECT_ID":"2022-019Y","EPOCH":"2026-03-09T22:29:05.103168","MEAN_MOTION":15.66086161,"ECCENTRICITY":0.00041625,"INCLINATION":97.3674,"RA_OF_ASC_NODE":159.1591,"ARG_OF_PERICENTER":171.5165,"MEAN_ANOMALY":188.6166,"EPHEMERIS_TYPE":0,"CLASSIFICATION_TYPE":"U","NORAD_CAT_ID":51846,"ELEMENT_SET_NO":999,"REV_AT_EPOCH":22427,"BSTAR":0.0010266873,"MEAN_MOTION_DOT":0.00106185,"MEAN_MOTION_DDOT":0}]
